#dP2021  5 19  0  0  0.00000000      96 __u+U ITR00 EXT  IAC
## 2158 259200.00000000   900.00000000 59353 0.0000000000000
+  116   C06C07C08C09C10C11C12C13C14C16C19C20C21C22C23C24C25
+        C26C27C28C29C30C32C33C34C35C36C37C38C39C40C41C42C43
+        C44C45C46E01E02E03E04E05E07E08E09E11E12E13E14E15E18
+        E19E21E24E25E26E27E30E31E33E36G01G02G03G04G05G06G07
+        G08G09G10G12G13G14G15G16G17G18G19G20G21G22G23G24G25
+        G26G27G28G29G30G31G32J01J02J03R01R02R03R04R05R07R08
+        R09R11R12R13R14R15R16R17R18R19R20R21R22R24  0  0  0
++        10 10 10 10  9  9  8  9  8 10  8  9  9  8  7  8  8
++         8 10  8  8  8 10 10  9  8  8  8  9 10 10  8  8  8
++         9  9 10  8  7  7  7  8  8  8  8  9  7  7  7  7  9
++         8  8  7  8  8  7  9  7  8  7  8  9  8  7  8  8  8
++         8  9  8  8  8  8  9  8  8  7  8  7  8  7  7  7  7
++         9  7  7  7  8  8  8  8  8 11  9  8  8  9 10  9  8
++        13  8  7  9  9  8  9  9  8  7  9  8  7  9  0  0  0
%c M  cc GPS ccc cccc cccc cccc cccc ccccc ccccc ccccc ccccc
%c cc cc ccc ccc cccc cccc cccc cccc ccccc ccccc ccccc ccccc
%f  0.0000000  0.000000000  0.00000000000  0.000000000000000
%f  0.0000000  0.000000000  0.00000000000  0.000000000000000
%i    0    0    0    0      0      0      0      0         0
%i    0    0    0    0      0      0      0      0         0
/* IAC                                ULTRA-RAPID PREDICTION
/* S/V CLOCKS ARE ALIGNED TO GNSS TIME                      
/* G:C1WC2W R:C1PC2P E:C1XC5X C:C2IC6I J:C1CC2S             
/* PCV:IGS14_2148 OL/AL:FES2004  NONE     YN ORB:CoN CLK:CoN
*  2021 05 19  1 15  0.00000000
PC06 -15738.084514  37853.298259  -8202.332134    400.501749
PC07 -10581.100077  25244.769617  32396.394066    166.314542
PC08 -24869.792689  23137.982861 -25120.893233   -890.574217
PC09  -7060.160313  40792.808367   6942.248540    513.579764
PC10   5114.469444  32143.293894  27239.590604    -40.960019
PC11 -14594.150888  22198.794890   8659.523214    348.877300
PC12 -17091.198482   5770.767007  21324.484129    878.275922
PC13 -11038.914733  25167.531577 -31951.533176    266.090688
PC14  -9885.028231  12766.298266 -22735.288279    768.480427
PC16 -13696.567207  39307.088720  -5803.035621   -845.748923
PC19   1202.263052 -19627.285988  19823.173900    839.940686
PC20  15878.593838  -5257.039600  22364.861043   -911.167194
PC21 -21746.785490 -13022.989941 -11617.926538   -940.167348
PC22 -14599.041599 -23078.939607   5663.936265   -955.452303
PC23   9709.235999  14229.697804  21959.851094   -910.736730
PC24 -26093.251330   8422.396898   5245.261848   -856.036404
PC25 -10612.280834  16561.239873  19798.069964   -914.935068
PC26 -25522.099422  -2817.037467 -10975.597174    905.107326
PC27  15045.385251   5052.250838 -22975.207949    533.897546
PC28   3855.692998  22181.981499 -16490.507967    -72.826498
PC29   8546.624191 -26565.802127    345.730452    394.121362
PC30  16900.488316 -15107.704724 -16299.420663    467.464437
PC32  21881.858173  12847.995322  11651.498265   -932.077901
PC33  -1119.604069  19634.334079 -19795.568856   -937.792288
PC34 -16812.629568  15714.532666  15753.688184   -670.378628
PC35  -4405.683877 -22299.650861  16203.590780   -274.439468
PC36  11374.877366 -16242.079184 -19611.373002   -726.653431
PC37  24992.526199   4023.867884  11745.966895   -890.330380
PC38 -18966.819773  25812.753601 -27467.356776    149.610260
PC39  -9642.246219  40777.511497  -3816.433989     31.154096
PC40    313.256162  28151.238981  31454.135684    162.297890
PC41  14525.850006  23082.004487  -5860.279702   -944.467952
PC42 -16327.787842   4596.401707 -22106.949693   -914.805588
PC43  -8974.140225  26408.936058    126.709329   -736.525395
PC44 -15222.909176  -4861.938714  22865.375856    194.890828
PC45  -9859.220340 -14043.713550 -22005.165940    443.791491
PC46  25650.243618  -9020.241647  -6201.130238    264.635347
PE01 -24405.622128 -13995.765075  -9205.712671  -1110.698875
PE02  24474.040280  13933.829153   9089.151240    220.022005
PE03  15682.893797  20025.934317  15157.504396   -432.408789
PE04 -17328.051163    489.209656 -23981.287763   -773.848553
PE05   4793.441412  29085.459728  -2710.259577   -279.888567
PE07   8789.494317 -21087.055431  18827.013981   -539.329120
PE08  17135.067246   -901.342787  24128.230042   5999.937577
PE09  -8443.969834  21268.826455 -18775.083785   5663.194980
PE11 -19609.700510  21864.807210  -3602.409429   5963.232575
PE12 -23772.997696   8841.475671  15237.081890   5203.829807
PE13  19804.358241 -21778.322876   3169.493382    416.583567
PE14 -14471.955830  -4999.025379  17705.941651  -1435.787573
PE15  23730.003919  -9007.522999 -15234.459203    813.543841
PE18  19907.343914   7886.714838 -24505.508301  -1571.734275
PE19 -14739.480660 -21855.892509 -13451.545001    280.339293
PE21  -7445.556290 -17980.452422 -22306.230207   -665.686273
PE24 -15381.498843  11269.188092  22631.971601   -907.525840
PE25   7223.570679  17969.866947  22387.614903   -534.244805
PE26   3464.166367 -21480.951667  20070.393117   1794.780300
PE27  14502.466744 -11759.241310 -22966.157365    -35.359161
PE30  28026.430882   2108.544003  -9279.370618   2934.376418
PE31 -27782.624021  -1326.676586  10131.390903   -481.303367
PE33 -13669.144592  -9058.005156  24643.343274   -468.753375
PE36  -4213.411987  21698.064104 -19680.957797   -208.970901
PG01  -7442.816270  18385.727698 -17746.153387    685.076182
PG02  22206.021414 -14315.162351  -2312.786575   -605.362064
PG03   2676.239422  17136.108883 -20230.374320   -167.754555
PG04  -1264.869514  26430.168415  -1907.828609   -196.810207
PG05  13388.777871  -9723.564399  20662.538127    -42.344106
PG06  22735.734655  -3871.183127 -13171.352567     17.163699
PG07   7598.573924  13597.625814  21854.371701    154.720688
PG08  -6537.138238  22978.351302  11261.069119    -21.727304
PG09   7339.060841  24035.002006   8506.187864   -346.302489
PG10 -23982.572456 -11675.635483  -1219.491433   -124.736594
PG12    619.351958 -16510.923533 -21081.565013    -42.971567
PG13  12887.733064 -16236.819671  16395.027761    133.766212
PG14  23285.875181  12763.622871  -1132.153463     83.875119
PG15   4162.318949 -23770.381088  10322.927516   -148.446058
PG16 -17670.515730   4149.771190  19303.021834   -327.383727
PG17  12730.952140  12100.991614 -19496.273278    444.592087
PG18 -10489.429795 -11130.485835  21709.651483    350.020995
PG19  14754.333991   2512.001792 -22232.310432      1.845606
PG20   3635.299705 -15323.240999  21352.300508    522.053260
PG21 -14156.104475  19321.606933 -10219.309296    119.093267
PG22  -7577.861854  13801.844670 -21187.497030   -610.834428
PG23 -18595.351208 -16508.005368   9382.784427    105.501912
PG24  10991.365721 -20136.631464 -13286.921703     85.926047
PG25 -12633.961069 -18396.079017 -14868.065840    139.769264
PG26 -23542.131361  -1160.888989  12440.749634     87.115795
PG27 -12290.633694  13625.316800  18885.016354   -132.431797
PG28  23435.227547  10024.430708  -6574.341870    569.110388
PG29  -4828.552551 -24614.736843   8607.622747   -349.406003
PG30  19089.455781   4193.563033  18147.780546   -427.860459
PG31 -24030.609019   5629.796085 -10489.642190   -118.077314
PG32 -14616.405931  -9082.763317 -20163.685968     20.943807
PJ01 -20914.730511  21167.724555 -25300.615307   -381.032794
PJ02 -28303.241382  22662.303795  26411.045361      0.045252
PJ03 -30726.485589  26585.396612  16219.386337     -5.786821
PR01  16189.530234  15532.378627  12162.077776     79.656036
PR02  10454.435283  -3615.931625  23028.682848    479.140407
PR03   -814.595482 -18389.820903  17731.125358     36.198909
PR04 -11504.871873 -22624.033738   2596.812382     87.408197
PR05 -15720.489183 -14384.610951 -14020.936370     72.004178
PR07   1275.387374  18724.966115 -17210.412181    -42.447343
PR08  11608.605535  22572.950441  -2371.585184    -59.058219
PR09 -23094.835911   4952.131533   9554.171902     -6.439384
PR11  10007.803144   9894.002471  21287.830245     -5.080979
PR12  23823.989134   3877.070690   8247.110027    230.050233
PR13  23444.126994  -4573.014162  -8971.348783    -54.948835
PR14   8906.878562 -10401.429740 -21513.499024     64.419359
PR15 -10363.529127 -10042.441752 -21013.974163    103.764316
PR16 -24372.398654  -2890.348271  -7206.874677    -15.229063
PR17  11558.775362 -22500.973600   3145.301135    425.231138
PR18   1375.370741 -18088.016837  17969.468646     77.012598
PR19  -9048.810041  -5046.223021  23303.850567   -144.253597
PR20 -16096.972586  13522.953134  14414.119477    -49.347107
PR21 -11076.727173  22570.566574  -4380.881509   -209.966429
PR22   -673.933974  17301.592374 -18706.804709   -113.364697
PR24  16161.931470 -14213.309438 -13672.366880     43.186556
EOF
